
# Worst residual: 22.02 km
# MJD 57578.000000 (2016 Jul  9  0:00)
1977-093E = NORAD 32705
1 32705U 77093E   16191.49921083  .00000000  00000-0  00000-0 0    00
2 32705 086.5866 331.1980 6195221 265.7361 035.5886 00.25820708    06

# Worst residual: 2.40 km
# MJD 57579.000000 (2016 Jul 10  0:00)
1977-093E = NORAD 32705
1 32705U 77093E   16192.49921083  .00000000  00000-0  00000-0 0    01
2 32705 086.5826 331.1725 6198034 265.7177 128.4658 00.25793761    06

# Worst residual: 3.85 km
# MJD 57580.000000 (2016 Jul 11  0:00)
1977-093E = NORAD 32705
1 32705U 77093E   16193.49921083  .00000000  00000-0  00000-0 0    02
2 32705 086.5796 331.1401 6201092 265.6550 221.4888 00.25804432    03

# Worst residual: 19.90 km
# MJD 57581.000000 (2016 Jul 12  0:00)
1977-093E = NORAD 32705
1 32705U 77093E   16194.49921083  .00000000  00000-0  00000-0 0    03
2 32705 086.5831 331.1023 6201192 265.6668 314.4151 00.25835475    01

# Worst residual: 21.63 km
# MJD 57582.000000 (2016 Jul 13  0:00)
1977-093E = NORAD 32705
1 32705U 77093E   16195.49921083  .00000000  00000-0  00000-0 0    04
2 32705 086.5840 331.0928 6199955 265.5538 047.5066 00.25832551    03

# Worst residual: 2.74 km
# MJD 57583.000000 (2016 Jul 14  0:00)
1977-093E = NORAD 32705
1 32705U 77093E   16196.49921083  .00000000  00000-0  00000-0 0    05
2 32705 086.5720 331.0578 6201730 265.5528 140.3877 00.25803298    03

# Worst residual: 6.78 km
# MJD 57584.000000 (2016 Jul 15  0:00)
1977-093E = NORAD 32705
1 32705U 77093E   16197.49921083  .00000000  00000-0  00000-0 0    06
2 32705 086.5688 331.0220 6201779 265.5313 233.3007 00.25806927    05

# Worst residual: 23.25 km
# MJD 57585.000000 (2016 Jul 16  0:00)
1977-093E = NORAD 32705
1 32705U 77093E   16198.49921083  .00000000  00000-0  00000-0 0    07
2 32705 086.5780 330.9781 6196411 265.5552 326.1580 00.25852480    01

# Worst residual: 14.12 km
# MJD 57586.000000 (2016 Jul 17  0:00)
1977-093E = NORAD 32705
1 32705U 77093E   16199.49921083  .00000000  00000-0  00000-0 0    08
2 32705 086.5685 330.9745 6199223 265.4563 059.2290 00.25813466    03

# Worst residual: 2.83 km
# MJD 57587.000000 (2016 Jul 18  0:00)
1977-093E = NORAD 32705
1 32705U 77093E   16200.49921083  .00000000  00000-0  00000-0 0    01
2 32705 086.5576 330.9390 6195593 265.4367 152.1995 00.25799631    08

# Worst residual: 8.60 km
# MJD 57588.000000 (2016 Jul 19  0:00)
1977-093E = NORAD 32705
1 32705U 77093E   16201.49921083  .00000000  00000-0  00000-0 0    02
2 32705 086.5547 330.9096 6193795 265.4046 245.1270 00.25800943    03

# Worst residual: 25.09 km
# MJD 57589.000000 (2016 Jul 20  0:00)
1977-093E = NORAD 32705
1 32705U 77093E   16202.49921083  .00000000  00000-0  00000-0 0    03
2 32705 086.5543 330.8802 6184941 265.4171 337.9596 00.25855476    07

# Worst residual: 4.98 km
# MJD 57590.000000 (2016 Jul 21  0:00)
1977-093E = NORAD 32705
1 32705U 77093E   16203.49921083  .00000000  00000-0  00000-0 0    04
2 32705 086.5482 330.8638 6190825 265.3606 070.9494 00.25792618    05

# Worst residual: 8.15 km
# MJD 57591.000000 (2016 Jul 22  0:00)
1977-093E = NORAD 32705
1 32705U 77093E   16204.49921083  .00000000  00000-0  00000-0 0    05
2 32705 086.5506 330.8485 6186649 265.2803 164.0471 00.25800597    05

# Worst residual: 6.63 km
# MJD 57592.000000 (2016 Jul 23  0:00)
1977-093E = NORAD 32705
1 32705U 77093E   16205.49921083  .00000000  00000-0  00000-0 0    06
2 32705 086.5470 330.8385 6182792 265.2127 257.0623 00.25793974    00

# Worst residual: 27.79 km
# MJD 57593.000000 (2016 Jul 24  0:00)
1977-093E = NORAD 32705
1 32705U 77093E   16206.49921083  .00000000  00000-0  00000-0 0    07
2 32705 086.5447 330.8143 6172666 265.2109 349.9121 00.25856803    00

# Worst residual: 11.90 km
# MJD 57594.000000 (2016 Jul 25  0:00)
1977-093E = NORAD 32705
1 32705U 77093E   16207.49921083  .00000000  00000-0  00000-0 0    08
2 32705 086.5336 330.7888 6180170 265.1198 082.9341 00.25819330    00

# Worst residual: 4.09 km
# MJD 57595.000000 (2016 Jul 26  0:00)
1977-093E = NORAD 32705
1 32705U 77093E   16208.49921083  .00000000  00000-0  00000-0 0    09
2 32705 086.5322 330.7720 6178317 265.0795 175.9538 00.25812993    01

# Worst residual: 10.92 km
# MJD 57596.000000 (2016 Jul 27  0:00)
1977-093E = NORAD 32705
1 32705U 77093E   16209.49921083  .00000000  00000-0  00000-0 0    00
2 32705 086.5253 330.7820 6177002 265.0455 268.9385 00.25818068    00

# Worst residual: 32.19 km
# MJD 57597.000000 (2016 Jul 28  0:00)
1977-093E = NORAD 32705
1 32705U 77093E   16210.49921083  .00000000  00000-0  00000-0 0    02
2 32705 086.5215 330.7665 6167536 264.9789 001.9197 00.25854686    06

# Worst residual: 6.97 km
# MJD 57598.000000 (2016 Jul 29  0:00)
1977-093E = NORAD 32705
1 32705U 77093E   16211.49921083  .00000000  00000-0  00000-0 0    03
2 32705 086.5163 330.7514 6174565 264.9089 094.9021 00.25813569    07

# Worst residual: 4.08 km
# MJD 57599.000000 (2016 Jul 30  0:00)
1977-093E = NORAD 32705
1 32705U 77093E   16212.49921083  .00000000  00000-0  00000-0 0    04
2 32705 086.5231 330.7555 6173552 264.8581 187.9357 00.25812532    03

# Worst residual: 16.25 km
# MJD 57600.000000 (2016 Jul 31  0:00)
1977-093E = NORAD 32705
1 32705U 77093E   16213.49921083  .00000000  00000-0  00000-0 0    05
2 32705 086.5227 330.7289 6173917 264.8423 280.9044 00.25827247    08

# Worst residual: 27.53 km
# MJD 57601.000000 (2016 Aug  1  0:00)
1977-093E = NORAD 32705
1 32705U 77093E   16214.49921083  .00000000  00000-0  00000-0 0    06
2 32705 086.5305 330.6991 6166954 264.7572 013.9319 00.25838804    01

# Worst residual: 6.37 km
# MJD 57602.000000 (2016 Aug  2  0:00)
1977-093E = NORAD 32705
1 32705U 77093E   16215.49921083  .00000000  00000-0  00000-0 0    07
2 32705 086.5276 330.6810 6172002 264.7492 106.7949 00.25783899    03

# Worst residual: 8.98 km
# MJD 57603.000000 (2016 Aug  3  0:00)
1977-093E = NORAD 32705
1 32705U 77093E   16216.49921083  .00000000  00000-0  00000-0 0    08
2 32705 086.5315 330.6782 6176215 264.6345 199.9391 00.25805933    00

# Worst residual: 14.82 km
# MJD 57604.000000 (2016 Aug  4  0:00)
1977-093E = NORAD 32705
1 32705U 77093E   16217.49921083  .00000000  00000-0  00000-0 0    09
2 32705 086.5266 330.6612 6176209 264.5807 292.9668 00.25810256    07

# Worst residual: 21.39 km
# MJD 57605.000000 (2016 Aug  5  0:00)
1977-093E = NORAD 32705
1 32705U 77093E   16218.49921083  .00000000  00000-0  00000-0 0    00
2 32705 086.5229 330.6368 6169639 264.5106 025.9666 00.25833453    01
